[{"OBJECT_NAME":"STARLINK-31852","OBJECT_ID":"2024-097G","EPOCH":"2026-03-09T13:01:45.924960","MEAN_MOTION":15.27576223,"ECCENTRICITY":0.00013694,"INCLINATION":43.0008,"RA_OF_ASC_NODE":267.4595,"ARG_OF_PERICENTER":258.3775,"MEAN_ANOMALY":101.6923,"EPHEMERIS_TYPE":0,"CLASSIFICATION_TYPE":"U","NORAD_CAT_ID":59841,"ELEMENT_SET_NO":999,"REV_AT_EPOCH":10198,"BSTAR":-1.3423639e-5,"MEAN_MOTION_DOT":-6.31e-6,"MEAN_MOTION_DDOT":0},{"OBJECT_NAME":"GEOSCAN 2 (RS92S2)","OBJECT_ID":"2025-155Q","EPOCH":"2026-03-09T23:01:48.939744","MEAN_MOTION":15.28709337,"ECCENTRICITY":0.00085277,"INCLINATION":97.4463,"RA_OF_ASC_NODE":37.5259,"ARG_OF_PERICENTER":140.9505,"MEAN_ANOMALY":219.2352,"EPHEMERIS_TYPE":0,"CLASSIFICATION_TYPE":"U","NORAD_CAT_ID":64890,"ELEMENT_SET_NO":999,"REV_AT_EPOCH":6561,"BSTAR":0.00051551761,"MEAN_MOTION_DOT":0.00014341,"MEAN_MOTION_DDOT":0}]
